[{"OBJECT_NAME":"ONEWEB-0361","OBJECT_ID":"2021-090J","EPOCH":"2026-03-09T16:19:26.627520","MEAN_MOTION":13.20771362,"ECCENTRICITY":0.00014376,"INCLINATION":87.9171,"RA_OF_ASC_NODE":294.3067,"ARG_OF_PERICENTER":79.5645,"MEAN_ANOMALY":280.5651,"EPHEMERIS_TYPE":0,"CLASSIFICATION_TYPE":"U","NORAD_CAT_ID":49287,"ELEMENT_SET_NO":999,"REV_AT_EPOCH":21716,"BSTAR":-0.00065372834,"MEAN_MOTION_DOT":-2.53e-6,"MEAN_MOTION_DDOT":0},{"OBJECT_NAME":"SL-8 R\/B","OBJECT_ID":"1975-089B","EPOCH":"2026-03-09T22:08:19.258368","MEAN_MOTION":13.21661367,"ECCENTRICITY":0.00233824,"INCLINATION":82.9565,"RA_OF_ASC_NODE":36.6897,"ARG_OF_PERICENTER":203.2197,"MEAN_ANOMALY":211.1663,"EPHEMERIS_TYPE":0,"CLASSIFICATION_TYPE":"U","NORAD_CAT_ID":8326,"ELEMENT_SET_NO":999,"REV_AT_EPOCH":43335,"BSTAR":-6.2245743e-5,"MEAN_MOTION_DOT":-1.3e-7,"MEAN_MOTION_DDOT":0}]
